{
  "last_updated": "2026-01-21T06:00:02.070142",
  "satellites": {
    "98592": {
      "name": "DUTHSat-2",
      "norad_id": "98592",
      "tle": "1 64530U 25135C   26020.29280778  .00024775  00000-0  10667-2 0  9994\n2 64530  97.4493 136.8617 0004846 359.1245   0.9982 15.22583324 32399",
      "epoch": "2026-01-20T07:01:38.592192",
      "fetched_at": "2026-01-21T06:00:02.194744",
      "source": "satnogs"
    },
    "98530": {
      "name": "LAMARR",
      "norad_id": "98530",
      "tle": "1 66673U 25276H   26020.18706389  .00021570  00000-0  10560-2 0  9991\n2 66673  97.4328  96.2298 0007215 163.0799 197.0677 15.18173122  7958",
      "epoch": "2026-01-20T04:29:22.320096",
      "fetched_at": "2026-01-21T06:00:02.248561",
      "source": "satnogs"
    },
    "98529": {
      "name": "DIRAC",
      "norad_id": "98529",
      "tle": "1 66681U 25276R   26020.17625033  .00020342  00000-0  98549-3 0  9995\n2 66681  97.4299  96.2255 0006050 170.5698 189.5651 15.18556429  7957",
      "epoch": "2026-01-20T04:13:48.028512",
      "fetched_at": "2026-01-21T06:00:02.297037",
      "source": "satnogs"
    },
    "98518": {
      "name": "MICE-1",
      "norad_id": "98518",
      "tle": "1 66684U 25276U   26019.72355168  .00005413  00000-0  27152-3 0  9990\n2 66684  97.4439  95.8536 0006620 141.3290 218.8419 15.17721461  7889",
      "epoch": "2026-01-19T17:21:54.865152",
      "fetched_at": "2026-01-21T06:00:02.341968",
      "source": "satnogs"
    }
  },
  "fetch_log": [
    {
      "norad_id": "98592",
      "name": "DUTHSat-2",
      "status": "success",
      "source": "satnogs",
      "timestamp": "2026-01-21T06:00:02.194748"
    },
    {
      "norad_id": "98530",
      "name": "LAMARR",
      "status": "success",
      "source": "satnogs",
      "timestamp": "2026-01-21T06:00:02.248565"
    },
    {
      "norad_id": "98529",
      "name": "DIRAC",
      "status": "success",
      "source": "satnogs",
      "timestamp": "2026-01-21T06:00:02.297041"
    },
    {
      "norad_id": "98518",
      "name": "MICE-1",
      "status": "success",
      "source": "satnogs",
      "timestamp": "2026-01-21T06:00:02.341984"
    }
  ]
}